*******************************************************************************
Ephemeris / WWW_USER Fri Mar  7 09:50:55 2025 Pasadena, USA      / Horizons    
*******************************************************************************
Target body name: Triton (801)                    {source: nep097_merged}
Center body name: Earth (399)                     {source: nep097_merged}
Center-site name: Mauna Kea
*******************************************************************************
Start time      : A.D. 2018-Dec-31 04:03:00.0000 UT      
Stop  time      : A.D. 2018-Dec-31 16:46:00.0000 UT      
Step-size       : 1 minutes
*******************************************************************************
Target pole/equ : IAU_TRITON                      {East-longitude positive}
Target radii    : 1352.6, 1352.6, 1352.6 km       {Equator_a, b, pole_c}       
Center geodetic : 204.5278, 19.8260847, 4.21024   {E-lon(deg),Lat(deg),Alt(km)}
Center cylindric: 204.5278, 6006.35451, 2151.0229 {E-lon(deg),Dxy(km),Dz(km)}
Center pole/equ : ITRF93                          {East-longitude positive}
Center radii    : 6378.137, 6378.137, 6356.752 km {Equator_a, b, pole_c}       
Target primary  : Neptune
Vis. interferer : MOON (R_eq= 1737.400) km        {source: DE441}
Rel. light bend : Sun                             {source: nep097_merged}
Rel. lght bnd GM: 1.3271E+11 km^3/s^2                                          
Atmos refraction: NO (AIRLESS)
RA format       : HMS
Time format     : CAL 
Calendar mode   : Mixed Julian/Gregorian
RTS-only print  : NO       
EOP file        : eop.250306.p250602                                           
EOP coverage    : DATA-BASED 1962-JAN-20 TO 2025-MAR-06. PREDICTS-> 2025-JUN-01
Units conversion: 1 au= 149597870.700 km, c= 299792.458 km/s, 1 day= 86400.0 s 
Table cut-offs 1: Elevation (-90.0deg=NO ),Airmass (>38.000=NO), Daylight (YES)
Table cut-offs 2: Solar elongation (  0.0,180.0=NO ),Local Hour Angle( 0.0=NO )
Table cut-offs 3: RA/DEC angular rate (     0.0=NO )                           
*******************************************************************************
 Date__(UT)__HR:MN     R.A._________(ICRF)_________DEC
******************************************************
$$SOE
 2018-Dec-31 04:03 C   23 01 48.688093 -07 16 07.11623
 2018-Dec-31 04:04 C   23 01 48.690665 -07 16 07.09228
 2018-Dec-31 04:05 C   23 01 48.693237 -07 16 07.06833
 2018-Dec-31 04:06 C   23 01 48.695809 -07 16 07.04436
 2018-Dec-31 04:07 C   23 01 48.698382 -07 16 07.02039
 2018-Dec-31 04:08 C   23 01 48.700955 -07 16 06.99641
 2018-Dec-31 04:09 C   23 01 48.703529 -07 16 06.97243
 2018-Dec-31 04:10 C   23 01 48.706104 -07 16 06.94843
 2018-Dec-31 04:11 C   23 01 48.708679 -07 16 06.92443
 2018-Dec-31 04:12 C   23 01 48.711254 -07 16 06.90041
 2018-Dec-31 04:13 C   23 01 48.713830 -07 16 06.87639
 2018-Dec-31 04:14 C   23 01 48.716407 -07 16 06.85236
 2018-Dec-31 04:15 C   23 01 48.718983 -07 16 06.82832
 2018-Dec-31 04:16 C   23 01 48.721561 -07 16 06.80428
 2018-Dec-31 04:17 C   23 01 48.724139 -07 16 06.78022
 2018-Dec-31 04:18 N   23 01 48.726717 -07 16 06.75616
 2018-Dec-31 04:19 N   23 01 48.729296 -07 16 06.73209
 2018-Dec-31 04:20 N   23 01 48.731876 -07 16 06.70801
 2018-Dec-31 04:21 N   23 01 48.734456 -07 16 06.68392
 2018-Dec-31 04:22 N   23 01 48.737036 -07 16 06.65982
 2018-Dec-31 04:23 N   23 01 48.739617 -07 16 06.63572
 2018-Dec-31 04:24 N   23 01 48.742199 -07 16 06.61160
 2018-Dec-31 04:25 N   23 01 48.744781 -07 16 06.58748
 2018-Dec-31 04:26 N   23 01 48.747364 -07 16 06.56335
 2018-Dec-31 04:27 N   23 01 48.749947 -07 16 06.53921
 2018-Dec-31 04:28 N   23 01 48.752531 -07 16 06.51506
 2018-Dec-31 04:29 N   23 01 48.755115 -07 16 06.49091
 2018-Dec-31 04:30 N   23 01 48.757700 -07 16 06.46675
 2018-Dec-31 04:31 N   23 01 48.760285 -07 16 06.44257
 2018-Dec-31 04:32 N   23 01 48.762871 -07 16 06.41839
 2018-Dec-31 04:33 N   23 01 48.765457 -07 16 06.39420
 2018-Dec-31 04:34 N   23 01 48.768044 -07 16 06.37001
 2018-Dec-31 04:35 N   23 01 48.770631 -07 16 06.34580
 2018-Dec-31 04:36 N   23 01 48.773219 -07 16 06.32159
 2018-Dec-31 04:37 N   23 01 48.775808 -07 16 06.29736
 2018-Dec-31 04:38 N   23 01 48.778397 -07 16 06.27313
 2018-Dec-31 04:39 N   23 01 48.780986 -07 16 06.24889
 2018-Dec-31 04:40 N   23 01 48.783576 -07 16 06.22464
 2018-Dec-31 04:41 N   23 01 48.786167 -07 16 06.20039
 2018-Dec-31 04:42 N   23 01 48.788758 -07 16 06.17612
 2018-Dec-31 04:43 N   23 01 48.791350 -07 16 06.15185
 2018-Dec-31 04:44 N   23 01 48.793942 -07 16 06.12757
 2018-Dec-31 04:45 A   23 01 48.796535 -07 16 06.10328
 2018-Dec-31 04:46 A   23 01 48.799129 -07 16 06.07898
 2018-Dec-31 04:47 A   23 01 48.801723 -07 16 06.05468
 2018-Dec-31 04:48 A   23 01 48.804317 -07 16 06.03036
 2018-Dec-31 04:49 A   23 01 48.806912 -07 16 06.00604
 2018-Dec-31 04:50 A   23 01 48.809508 -07 16 05.98171
 2018-Dec-31 04:51 A   23 01 48.812104 -07 16 05.95737
 2018-Dec-31 04:52 A   23 01 48.814701 -07 16 05.93302
 2018-Dec-31 04:53 A   23 01 48.817299 -07 16 05.90867
 2018-Dec-31 04:54 A   23 01 48.819897 -07 16 05.88431
 2018-Dec-31 04:55 A   23 01 48.822495 -07 16 05.85993
 2018-Dec-31 04:56 A   23 01 48.825094 -07 16 05.83555
 2018-Dec-31 04:57 A   23 01 48.827694 -07 16 05.81116
 2018-Dec-31 04:58 A   23 01 48.830294 -07 16 05.78677
 2018-Dec-31 04:59 A   23 01 48.832895 -07 16 05.76236
 2018-Dec-31 05:00 A   23 01 48.835496 -07 16 05.73795
 2018-Dec-31 05:01 A   23 01 48.838098 -07 16 05.71353
 2018-Dec-31 05:02 A   23 01 48.840701 -07 16 05.68910
 2018-Dec-31 05:03 A   23 01 48.843304 -07 16 05.66466
 2018-Dec-31 05:04 A   23 01 48.845908 -07 16 05.64021
 2018-Dec-31 05:05 A   23 01 48.848512 -07 16 05.61576
 2018-Dec-31 05:06 A   23 01 48.851117 -07 16 05.59129
 2018-Dec-31 05:07 A   23 01 48.853722 -07 16 05.56682
 2018-Dec-31 05:08 A   23 01 48.856328 -07 16 05.54234
 2018-Dec-31 05:09 A   23 01 48.858935 -07 16 05.51785
 2018-Dec-31 05:10 A   23 01 48.861542 -07 16 05.49336
 2018-Dec-31 05:11 A   23 01 48.864150 -07 16 05.46885
 2018-Dec-31 05:12     23 01 48.866759 -07 16 05.44434
 2018-Dec-31 05:13     23 01 48.869368 -07 16 05.41982
 2018-Dec-31 05:14     23 01 48.871977 -07 16 05.39529
 2018-Dec-31 05:15     23 01 48.874588 -07 16 05.37076
 2018-Dec-31 05:16     23 01 48.877198 -07 16 05.34621
 2018-Dec-31 05:17     23 01 48.879810 -07 16 05.32166
 2018-Dec-31 05:18     23 01 48.882422 -07 16 05.29709
 2018-Dec-31 05:19     23 01 48.885035 -07 16 05.27252
 2018-Dec-31 05:20     23 01 48.887648 -07 16 05.24795
 2018-Dec-31 05:21     23 01 48.890262 -07 16 05.22336
 2018-Dec-31 05:22     23 01 48.892876 -07 16 05.19877
 2018-Dec-31 05:23     23 01 48.895491 -07 16 05.17416
 2018-Dec-31 05:24     23 01 48.898107 -07 16 05.14955
 2018-Dec-31 05:25     23 01 48.900723 -07 16 05.12493
 2018-Dec-31 05:26     23 01 48.903340 -07 16 05.10031
 2018-Dec-31 05:27     23 01 48.905958 -07 16 05.07567
 2018-Dec-31 05:28     23 01 48.908576 -07 16 05.05103
 2018-Dec-31 05:29     23 01 48.911195 -07 16 05.02638
 2018-Dec-31 05:30     23 01 48.913814 -07 16 05.00172
 2018-Dec-31 05:31     23 01 48.916434 -07 16 04.97705
 2018-Dec-31 05:32     23 01 48.919055 -07 16 04.95237
 2018-Dec-31 05:33     23 01 48.921676 -07 16 04.92769
 2018-Dec-31 05:34     23 01 48.924298 -07 16 04.90300
 2018-Dec-31 05:35     23 01 48.926921 -07 16 04.87830
 2018-Dec-31 05:36     23 01 48.929544 -07 16 04.85359
 2018-Dec-31 05:37     23 01 48.932168 -07 16 04.82887
 2018-Dec-31 05:38     23 01 48.934792 -07 16 04.80415
 2018-Dec-31 05:39     23 01 48.937417 -07 16 04.77941
 2018-Dec-31 05:40     23 01 48.940043 -07 16 04.75467
 2018-Dec-31 05:41     23 01 48.942669 -07 16 04.72992
 2018-Dec-31 05:42     23 01 48.945296 -07 16 04.70517
 2018-Dec-31 05:43     23 01 48.947924 -07 16 04.68040
 2018-Dec-31 05:44     23 01 48.950552 -07 16 04.65563
 2018-Dec-31 05:45     23 01 48.953181 -07 16 04.63085
 2018-Dec-31 05:46     23 01 48.955811 -07 16 04.60606
 2018-Dec-31 05:47     23 01 48.958441 -07 16 04.58126
 2018-Dec-31 05:48     23 01 48.961072 -07 16 04.55646
 2018-Dec-31 05:49     23 01 48.963703 -07 16 04.53164
 2018-Dec-31 05:50     23 01 48.966335 -07 16 04.50682
 2018-Dec-31 05:51     23 01 48.968968 -07 16 04.48199
 2018-Dec-31 05:52     23 01 48.971602 -07 16 04.45715
 2018-Dec-31 05:53     23 01 48.974236 -07 16 04.43231
 2018-Dec-31 05:54     23 01 48.976870 -07 16 04.40745
 2018-Dec-31 05:55     23 01 48.979506 -07 16 04.38259
 2018-Dec-31 05:56     23 01 48.982142 -07 16 04.35772
 2018-Dec-31 05:57     23 01 48.984779 -07 16 04.33284
 2018-Dec-31 05:58     23 01 48.987416 -07 16 04.30796
 2018-Dec-31 05:59     23 01 48.990054 -07 16 04.28307
 2018-Dec-31 06:00     23 01 48.992693 -07 16 04.25816
 2018-Dec-31 06:01     23 01 48.995332 -07 16 04.23325
 2018-Dec-31 06:02     23 01 48.997972 -07 16 04.20834
 2018-Dec-31 06:03     23 01 49.000613 -07 16 04.18341
 2018-Dec-31 06:04     23 01 49.003254 -07 16 04.15848
 2018-Dec-31 06:05     23 01 49.005896 -07 16 04.13353
 2018-Dec-31 06:06     23 01 49.008539 -07 16 04.10858
 2018-Dec-31 06:07     23 01 49.011182 -07 16 04.08363
 2018-Dec-31 06:08     23 01 49.013826 -07 16 04.05866
 2018-Dec-31 06:09     23 01 49.016471 -07 16 04.03369
 2018-Dec-31 06:10     23 01 49.019116 -07 16 04.00871
 2018-Dec-31 06:11     23 01 49.021762 -07 16 03.98372
 2018-Dec-31 06:12     23 01 49.024409 -07 16 03.95872
 2018-Dec-31 06:13     23 01 49.027057 -07 16 03.93371
 2018-Dec-31 06:14     23 01 49.029705 -07 16 03.90870
 2018-Dec-31 06:15     23 01 49.032353 -07 16 03.88368
 2018-Dec-31 06:16     23 01 49.035003 -07 16 03.85865
 2018-Dec-31 06:17     23 01 49.037653 -07 16 03.83361
 2018-Dec-31 06:18     23 01 49.040304 -07 16 03.80857
 2018-Dec-31 06:19     23 01 49.042955 -07 16 03.78351
 2018-Dec-31 06:20     23 01 49.045607 -07 16 03.75845
 2018-Dec-31 06:21     23 01 49.048260 -07 16 03.73338
 2018-Dec-31 06:22     23 01 49.050914 -07 16 03.70831
